LANDSAT 9               
1 49260U 21088A   24148.15791072  .00000707  00000+0  16683-3 0  9991
2 49260  98.1876 218.1322 0001005  90.0903 270.0411 14.57130144141627
